start=new Date('2021-12-02T00:00:00.000Z').valueOf();
sats=[{"EPHEMERIS_TYPE":"0","CENTER_NAME":"EARTH","TIME_SYSTEM":"UTC","CLASSIFICATION_TYPE":"U","LAUNCH_DATE":"2020-08-07","INCLINATION":"53.0538","MEAN_MOTION":"15.06394947","NORAD_CAT_ID":"46067","PERIOD":"95.592","FILE":"3229140","DECAY_DATE":null,"SEMIMAJOR_AXIS":"6925.364","RCS_SIZE":"LARGE","REV_AT_EPOCH":"7425","GP_ID":"190858739","PERIAPSIS":"545.855","OBJECT_ID":"2020-055AS","OBJECT_NAME":"STARLINK-1529","APOAPSIS":"548.603","MEAN_ELEMENT_THEORY":"SGP4","OBJECT_TYPE":"PAYLOAD","MEAN_MOTION_DOT":"0.00000494","REF_FRAME":"TEME","TLE_LINE2":"2 46067  53.0538 257.6286 0001984  62.1455 297.9734 15.06394947 74257","EPOCH":"2021-12-01T03:49:10.806240","MEAN_ANOMALY":"297.9734","MEAN_MOTION_DDOT":"0.0000000000000","SITE":"AFETR","COUNTRY_CODE":"US","TLE_LINE1":"1 46067U 20055AS  21335.15915285  .00000494  00000-0  52076-4 0  9996","ELEMENT_SET_NO":"999","RA_OF_ASC_NODE":"257.6286","BSTAR":"0.00005207600000","ECCENTRICITY":"0.00019840","ARG_OF_PERICENTER":"62.1455"},{"ELEMENT_SET_NO":"999","RA_OF_ASC_NODE":"256.0771","COUNTRY_CODE":"US","TLE_LINE1":"1 46068U 20055AT  21335.50194366  .00001090  00000-0  92055-4 0  9999","SITE":"AFETR","ARG_OF_PERICENTER":"62.7218","ECCENTRICITY":"0.00019790","BSTAR":"0.00009205500000","EPOCH":"2021-12-01T12:02:47.932224","TLE_LINE2":"2 46068  53.0527 256.0771 0001979  62.7218 297.3972 15.06395986 73762","REF_FRAME":"TEME","MEAN_MOTION_DOT":"0.00001090","MEAN_MOTION_DDOT":"0.0000000000000","MEAN_ANOMALY":"297.3972","PERIAPSIS":"545.855","GP_ID":"190864281","FILE":"3229240","SEMIMAJOR_AXIS":"6925.361","DECAY_DATE":null,"PERIOD":"95.592","RCS_SIZE":"LARGE","REV_AT_EPOCH":"7376","MEAN_ELEMENT_THEORY":"SGP4","APOAPSIS":"548.596","OBJECT_TYPE":"PAYLOAD","OBJECT_NAME":"STARLINK-1532","OBJECT_ID":"2020-055AT","CLASSIFICATION_TYPE":"U","TIME_SYSTEM":"UTC","LAUNCH_DATE":"2020-08-07","CENTER_NAME":"EARTH","EPHEMERIS_TYPE":"0","MEAN_MOTION":"15.06395986","NORAD_CAT_ID":"46068","INCLINATION":"53.0527"},{"ARG_OF_PERICENTER":"67.9428","ECCENTRICITY":"0.00020780","BSTAR":"0.00007657400000","ELEMENT_SET_NO":"999","RA_OF_ASC_NODE":"256.0172","COUNTRY_CODE":"US","TLE_LINE1":"1 46069U 20055AU  21335.51668706  .00000859  00000-0  76574-4 0  9995","SITE":"AFETR","MEAN_MOTION_DDOT":"0.0000000000000","MEAN_ANOMALY":"292.1782","TLE_LINE2":"2 46069  53.0539 256.0172 0002078  67.9428 292.1782 15.06392479 74310","EPOCH":"2021-12-01T12:24:01.761984","REF_FRAME":"TEME","MEAN_MOTION_DOT":"0.00000859","MEAN_ELEMENT_THEORY":"SGP4","APOAPSIS":"548.676","OBJECT_TYPE":"PAYLOAD","OBJECT_NAME":"STARLINK-1533","OBJECT_ID":"2020-055AU","PERIAPSIS":"545.798","GP_ID":"190858238","FILE":"3229140","DECAY_DATE":null,"PERIOD":"95.593","SEMIMAJOR_AXIS":"6925.372","RCS_SIZE":"LARGE","REV_AT_EPOCH":"7431","NORAD_CAT_ID":"46069","MEAN_MOTION":"15.06392479","INCLINATION":"53.0539","CLASSIFICATION_TYPE":"U","TIME_SYSTEM":"UTC","LAUNCH_DATE":"2020-08-07","CENTER_NAME":"EARTH","EPHEMERIS_TYPE":"0"},{"CENTER_NAME":"EARTH","TIME_SYSTEM":"UTC","CLASSIFICATION_TYPE":"U","LAUNCH_DATE":"2020-08-07","EPHEMERIS_TYPE":"0","NORAD_CAT_ID":"46070","MEAN_MOTION":"15.06409904","INCLINATION":"53.0541","GP_ID":"190858488","PERIAPSIS":"545.818","SEMIMAJOR_AXIS":"6925.318","FILE":"3229140","DECAY_DATE":null,"PERIOD":"95.592","REV_AT_EPOCH":"7426","RCS_SIZE":"LARGE","OBJECT_NAME":"STARLINK-1536","APOAPSIS":"548.549","MEAN_ELEMENT_THEORY":"SGP4","OBJECT_TYPE":"PAYLOAD","OBJECT_ID":"2020-055AV","REF_FRAME":"TEME","EPOCH":"2021-12-01T04:47:32.565408","TLE_LINE2":"2 46070  53.0541 257.4389 0001972  63.8012 296.3180 15.06409904 74260","MEAN_MOTION_DOT":"0.00000868","MEAN_ANOMALY":"296.3180","MEAN_MOTION_DDOT":"0.0000000000000","ELEMENT_SET_NO":"999","RA_OF_ASC_NODE":"257.4389","SITE":"AFETR","COUNTRY_CODE":"US","TLE_LINE1":"1 46070U 20055AV  21335.19968247  .00000868  00000-0  77163-4 0  9999","ARG_OF_PERICENTER":"63.8012","ECCENTRICITY":"0.00019720","BSTAR":"0.00007716300000"},{"INCLINATION":"53.0539","NORAD_CAT_ID":"46071","MEAN_MOTION":"15.06400197","EPHEMERIS_TYPE":"0","CLASSIFICATION_TYPE":"U","TIME_SYSTEM":"UTC","LAUNCH_DATE":"2020-08-07","CENTER_NAME":"EARTH","OBJECT_ID":"2020-055AW","APOAPSIS":"548.548","MEAN_ELEMENT_THEORY":"SGP4","OBJECT_TYPE":"PAYLOAD","OBJECT_NAME":"STARLINK-1538","FILE":"3229140","SEMIMAJOR_AXIS":"6925.348","DECAY_DATE":null,"PERIOD":"95.592","REV_AT_EPOCH":"7430","RCS_SIZE":"LARGE","PERIAPSIS":"545.878","GP_ID":"190859239","MEAN_MOTION_DDOT":"0.0000000000000","MEAN_ANOMALY":"292.3680","MEAN_MOTION_DOT":"-0.00002827","TLE_LINE2":"2 46071  53.0539 256.1757 0001928  67.7513 292.3680 15.06400197 74304","EPOCH":"2021-12-01T11:36:15.648480","REF_FRAME":"TEME","BSTAR":"-0.00017092000000","ARG_OF_PERICENTER":"67.7513","ECCENTRICITY":"0.00019280","COUNTRY_CODE":"US","TLE_LINE1":"1 46071U 20055AW  21335.48351445 -.00002827  00000-0 -17092-3 0  9991","SITE":"AFETR","ELEMENT_SET_NO":"999","RA_OF_ASC_NODE":"256.1757"},{"MEAN_MOTION_DDOT":"0.0000000000000","MEAN_ANOMALY":"301.9778","TLE_LINE2":"2 46072  53.0547 256.0440 0001936  58.1400 301.9778 15.06401406 73768","EPOCH":"2021-12-01T12:12:03.252672","REF_FRAME":"TEME","MEAN_MOTION_DOT":"-0.00002008","ARG_OF_PERICENTER":"58.1400","ECCENTRICITY":"0.00019360","BSTAR":"-0.00011595000000","ELEMENT_SET_NO":"999","RA_OF_ASC_NODE":"256.0440","COUNTRY_CODE":"US","TLE_LINE1":"1 46072U 20055AX  21335.50837098 -.00002008  00000-0 -11595-3 0  9991","SITE":"AFETR","NORAD_CAT_ID":"46072","MEAN_MOTION":"15.06401406","INCLINATION":"53.0547","TIME_SYSTEM":"UTC","CLASSIFICATION_TYPE":"U","LAUNCH_DATE":"2020-08-07","CENTER_NAME":"EARTH","EPHEMERIS_TYPE":"0","APOAPSIS":"548.550","MEAN_ELEMENT_THEORY":"SGP4","OBJECT_TYPE":"PAYLOAD","OBJECT_NAME":"STARLINK-1539","OBJECT_ID":"2020-055AX","PERIAPSIS":"545.869","GP_ID":"190864248","DECAY_DATE":null,"FILE":"3229253","SEMIMAJOR_AXIS":"6925.344","PERIOD":"95.592","RCS_SIZE":"LARGE","REV_AT_EPOCH":"7376"},{"MEAN_ANOMALY":"299.9611","MEAN_MOTION_DDOT":"0.0000000000000","MEAN_MOTION_DOT":"-0.00000948","REF_FRAME":"TEME","TLE_LINE2":"2 46073  53.0542 255.9956 0002018  60.1578 299.9611 15.06398156 73775","EPOCH":"2021-12-01T12:34:38.572320","BSTAR":"-0.00004470800000","ECCENTRICITY":"0.00020180","ARG_OF_PERICENTER":"60.1578","SITE":"AFETR","COUNTRY_CODE":"US","TLE_LINE1":"1 46073U 20055AY  21335.52405755 -.00000948  00000-0 -44708-4 0  9999","RA_OF_ASC_NODE":"255.9956","ELEMENT_SET_NO":"999","INCLINATION":"53.0542","MEAN_MOTION":"15.06398156","NORAD_CAT_ID":"46073","EPHEMERIS_TYPE":"0","CENTER_NAME":"EARTH","CLASSIFICATION_TYPE":"U","TIME_SYSTEM":"UTC","LAUNCH_DATE":"2020-08-07","OBJECT_ID":"2020-055AY","OBJECT_NAME":"STARLINK-1542","APOAPSIS":"548.617","MEAN_ELEMENT_THEORY":"SGP4","OBJECT_TYPE":"PAYLOAD","SEMIMAJOR_AXIS":"6925.354","FILE":"3229229","DECAY_DATE":null,"PERIOD":"95.592","REV_AT_EPOCH":"7377","RCS_SIZE":"LARGE","GP_ID":"190864443","PERIAPSIS":"545.822"},{"COUNTRY_CODE":"US","TLE_LINE1":"1 46074U 20055AZ  21335.50931968 -.00001125  00000-0 -56679-4 0  9996","SITE":"AFETR","RA_OF_ASC_NODE":"256.0530","ELEMENT_SET_NO":"999","BSTAR":"-0.00005667900000","ARG_OF_PERICENTER":"59.7726","ECCENTRICITY":"0.00017040","MEAN_MOTION_DOT":"-0.00001125","EPOCH":"2021-12-01T12:13:25.220352","TLE_LINE2":"2 46074  53.0539 256.0530 0001704  59.7726 300.3432 15.06389438 73773","REF_FRAME":"TEME","MEAN_MOTION_DDOT":"0.0000000000000","MEAN_ANOMALY":"300.3432","FILE":"3229245","DECAY_DATE":null,"SEMIMAJOR_AXIS":"6925.381","PERIOD":"95.593","RCS_SIZE":"LARGE","REV_AT_EPOCH":"7377","PERIAPSIS":"546.066","GP_ID":"190864373","OBJECT_ID":"2020-055AZ","MEAN_ELEMENT_THEORY":"SGP4","APOAPSIS":"548.426","OBJECT_TYPE":"PAYLOAD","OBJECT_NAME":"STARLINK-1549","EPHEMERIS_TYPE":"0","TIME_SYSTEM":"UTC","CLASSIFICATION_TYPE":"U","LAUNCH_DATE":"2020-08-07","CENTER_NAME":"EARTH","INCLINATION":"53.0539","NORAD_CAT_ID":"46074","MEAN_MOTION":"15.06389438"},{"REF_FRAME":"TEME","EPOCH":"2021-12-01T06:28:24.442176","TLE_LINE2":"2 46075  53.0539 257.1367 0002084  70.3472 289.7741 15.06396999 74261","MEAN_MOTION_DOT":"-0.00000476","MEAN_ANOMALY":"289.7741","MEAN_MOTION_DDOT":"0.0000000000000","RA_OF_ASC_NODE":"257.1367","ELEMENT_SET_NO":"999","SITE":"AFETR","COUNTRY_CODE":"US","TLE_LINE1":"1 46075U 20055BA  21335.26972734 -.00000476  00000-0 -13051-4 0  9991","ECCENTRICITY":"0.00020840","ARG_OF_PERICENTER":"70.3472","BSTAR":"-0.00001305100000","CENTER_NAME":"EARTH","TIME_SYSTEM":"UTC","CLASSIFICATION_TYPE":"U","LAUNCH_DATE":"2020-08-07","EPHEMERIS_TYPE":"0","NORAD_CAT_ID":"46075","MEAN_MOTION":"15.06396999","INCLINATION":"53.0539","GP_ID":"190858740","PERIAPSIS":"545.780","FILE":"3229140","PERIOD":"95.592","DECAY_DATE":null,"SEMIMAJOR_AXIS":"6925.358","REV_AT_EPOCH":"7426","RCS_SIZE":"LARGE","OBJECT_NAME":"STARLINK-1551","APOAPSIS":"548.666","MEAN_ELEMENT_THEORY":"SGP4","OBJECT_TYPE":"PAYLOAD","OBJECT_ID":"2020-055BA"},{"EPHEMERIS_TYPE":"0","LAUNCH_DATE":"2020-08-07","CLASSIFICATION_TYPE":"U","TIME_SYSTEM":"UTC","CENTER_NAME":"EARTH","INCLINATION":"53.0534","MEAN_MOTION":"15.06387281","NORAD_CAT_ID":"46076","RCS_SIZE":"LARGE","REV_AT_EPOCH":"7428","FILE":"3229140","DECAY_DATE":null,"PERIOD":"95.593","SEMIMAJOR_AXIS":"6925.388","PERIAPSIS":"545.896","GP_ID":"190858991","OBJECT_ID":"2020-055BB","OBJECT_TYPE":"PAYLOAD","APOAPSIS":"548.609","MEAN_ELEMENT_THEORY":"SGP4","OBJECT_NAME":"STARLINK-1552","MEAN_MOTION_DOT":"-0.00001198","TLE_LINE2":"2 46076  53.0534 256.1266 0001959  55.0041 305.1131 15.06387281 74288","EPOCH":"2021-12-01T11:52:11.845056","REF_FRAME":"TEME","MEAN_MOTION_DDOT":"0.0000000000000","MEAN_ANOMALY":"305.1131","TLE_LINE1":"1 46076U 20055BB  21335.49458154 -.00001198  00000-0 -61527-4 0  9995","COUNTRY_CODE":"US","SITE":"AFETR","ELEMENT_SET_NO":"999","RA_OF_ASC_NODE":"256.1266","BSTAR":"-0.00006152700000","ARG_OF_PERICENTER":"55.0041","ECCENTRICITY":"0.00019590"}];
